[{"ORDINAL":"1","COMMENT":"GENERATED VIA SPACETRACK.ORG API","ORIGINATOR":"JSPOC","NORAD_CAT_ID":"40263","OBJECT_NAME":"CZ-2C DEB","OBJECT_TYPE":"DEBRIS","CLASSIFICATION_TYPE":"U","INTLDES":"14059C","EPOCH":"2014-12-03 05:48:44","EPOCH_MICROSECONDS":"950752","MEAN_MOTION":"14.47107763","ECCENTRICITY":"0.0114892","INCLINATION":"98.3313","RA_OF_ASC_NODE":"64.3815","ARG_OF_PERICENTER":"20.2843","MEAN_ANOMALY":"340.2862","EPHEMERIS_TYPE":"0","ELEMENT_SET_NO":"47","REV_AT_EPOCH":"955","BSTAR":"0.0012742","MEAN_MOTION_DOT":"4.999e-05","MEAN_MOTION_DDOT":"0","FILE":"1787450","TLE_LINE0":"0 CZ-2C DEB","TLE_LINE1":"1 40263U 14059C   14337.24218693  .00004999  00000-0  12742-2 0   470","TLE_LINE2":"2 40263 098.3313 064.3815 0114892 020.2843 340.2862 14.47107763  9559","OBJECT_ID":"2014-059C","OBJECT_NUMBER":"40263"},{"ORDINAL":"1","COMMENT":"GENERATED VIA SPACETRACK.ORG API","ORIGINATOR":"JSPOC","NORAD_CAT_ID":"40290","OBJECT_NAME":"CZ-2C DEB","OBJECT_TYPE":"DEBRIS","CLASSIFICATION_TYPE":"U","INTLDES":"14066E","EPOCH":"2014-12-03 05:14:44","EPOCH_MICROSECONDS":"928383","MEAN_MOTION":"14.48952848","ECCENTRICITY":"0.0103964","INCLINATION":"97.9674","RA_OF_ASC_NODE":"89.4574","ARG_OF_PERICENTER":"112.1264","MEAN_ANOMALY":"249.1007","EPHEMERIS_TYPE":"0","ELEMENT_SET_NO":"31","REV_AT_EPOCH":"535","BSTAR":"0.0013718","MEAN_MOTION_DOT":"5.526e-05","MEAN_MOTION_DDOT":"0","FILE":"1787487","TLE_LINE0":"0 CZ-2C DEB","TLE_LINE1":"1 40290U 14066E   14337.21857556  .00005526  00000-0  13718-2 0   316","TLE_LINE2":"2 40290 097.9674 089.4574 0103964 112.1264 249.1007 14.48952848  5355","OBJECT_ID":"2014-066E","OBJECT_NUMBER":"40290"},{"ORDINAL":"1","COMMENT":"GENERATED VIA SPACETRACK.ORG API","ORIGINATOR":"JSPOC","NORAD_CAT_ID":"40151","OBJECT_NAME":"FOTON M4 DEB","OBJECT_TYPE":"DEBRIS","CLASSIFICATION_TYPE":"U","INTLDES":"14041D","EPOCH":"2014-12-03 04:48:04","EPOCH_MICROSECONDS":"246559","MEAN_MOTION":"15.13292346","ECCENTRICITY":"0.0069737","INCLINATION":"65.0016","RA_OF_ASC_NODE":"262.9324","ARG_OF_PERICENTER":"43.765","MEAN_ANOMALY":"317.0462","EPHEMERIS_TYPE":"0","ELEMENT_SET_NO":"104","REV_AT_EPOCH":"1247","BSTAR":"0.0077171","MEAN_MOTION_DOT":"0.00149125","MEAN_MOTION_DDOT":"0","FILE":"1787538","TLE_LINE0":"0 FOTON M4 DEB","TLE_LINE1":"1 40151U 14041D   14337.20004915  .00149125  00000-0  77171-2 0  1045","TLE_LINE2":"2 40151 065.0016 262.9324 0069737 043.7650 317.0462 15.13292346 12479","OBJECT_ID":"2014-041D","OBJECT_NUMBER":"40151"},{"ORDINAL":"4","COMMENT":"GENERATED VIA SPACETRACK.ORG API","ORIGINATOR":"JSPOC","NORAD_CAT_ID":"39619","OBJECT_NAME":"ARIANE 5 DEB (SYLDA)","OBJECT_TYPE":"DEBRIS","CLASSIFICATION_TYPE":"U","INTLDES":"14011D","EPOCH":"2014-12-03 04:44:04","EPOCH_MICROSECONDS":"11360","MEAN_MOTION":"2.48622105","ECCENTRICITY":"0.7136434","INCLINATION":"2.637","RA_OF_ASC_NODE":"233.5392","ARG_OF_PERICENTER":"31.534","MEAN_ANOMALY":"356.1289","EPHEMERIS_TYPE":"0","ELEMENT_SET_NO":"253","REV_AT_EPOCH":"594","BSTAR":"0.020037","MEAN_MOTION_DOT":"0.00189873","MEAN_MOTION_DDOT":"0","FILE":"1787756","TLE_LINE0":"0 ARIANE 5 DEB (SYLDA)","TLE_LINE1":"1 39619U 14011D   14337.19726865  .00189873  00000-0  20037-1 0  2539","TLE_LINE2":"2 39619 002.6370 233.5392 7136434 031.5340 356.1289 02.48622105  5941","OBJECT_ID":"2014-011D","OBJECT_NUMBER":"39619"},{"ORDINAL":"2","COMMENT":"GENERATED VIA SPACETRACK.ORG API","ORIGINATOR":"JSPOC","NORAD_CAT_ID":"39628","OBJECT_NAME":"CZ-2C DEB","OBJECT_TYPE":"DEBRIS","CLASSIFICATION_TYPE":"U","INTLDES":"14014E","EPOCH":"2014-12-03 03:42:47","EPOCH_MICROSECONDS":"705184","MEAN_MOTION":"14.49047549","ECCENTRICITY":"0.0110971","INCLINATION":"98.4703","RA_OF_ASC_NODE":"32.0665","ARG_OF_PERICENTER":"195.2046","MEAN_ANOMALY":"164.5803","EPHEMERIS_TYPE":"0","ELEMENT_SET_NO":"180","REV_AT_EPOCH":"3575","BSTAR":"0.0025638","MEAN_MOTION_DOT":"0.00010489","MEAN_MOTION_DDOT":"0","FILE":"1787521","TLE_LINE0":"0 CZ-2C DEB","TLE_LINE1":"1 39628U 14014E   14337.15471881  .00010489  00000-0  25638-2 0  1801","TLE_LINE2":"2 39628 098.4703 032.0665 0110971 195.2046 164.5803 14.49047549 35753","OBJECT_ID":"2014-014E","OBJECT_NUMBER":"39628"},{"ORDINAL":"1","COMMENT":"GENERATED VIA SPACETRACK.ORG API","ORIGINATOR":"JSPOC","NORAD_CAT_ID":"39626","OBJECT_NAME":"CZ-2C DEB","OBJECT_TYPE":"DEBRIS","CLASSIFICATION_TYPE":"U","INTLDES":"14014C","EPOCH":"2014-12-03 02:11:30","EPOCH_MICROSECONDS":"760800","MEAN_MOTION":"14.49095647","ECCENTRICITY":"0.0111568","INCLINATION":"98.0247","RA_OF_ASC_NODE":"19.2048","ARG_OF_PERICENTER":"187.5175","MEAN_ANOMALY":"172.4352","EPHEMERIS_TYPE":"0","ELEMENT_SET_NO":"155","REV_AT_EPOCH":"3573","BSTAR":"0.0017449","MEAN_MOTION_DOT":"7.137e-05","MEAN_MOTION_DDOT":"0","FILE":"1787519","TLE_LINE0":"0 CZ-2C DEB","TLE_LINE1":"1 39626U 14014C   14337.09132825  .00007137  00000-0  17449-2 0  1553","TLE_LINE2":"2 39626 098.0247 019.2048 0111568 187.5175 172.4352 14.49095647 35739","OBJECT_ID":"2014-014C","OBJECT_NUMBER":"39626"},{"ORDINAL":"1","COMMENT":"GENERATED VIA SPACETRACK.ORG API","ORIGINATOR":"JSPOC","NORAD_CAT_ID":"40288","OBJECT_NAME":"CZ-2C DEB","OBJECT_TYPE":"DEBRIS","CLASSIFICATION_TYPE":"U","INTLDES":"14066C","EPOCH":"2014-12-02 21:09:24","EPOCH_MICROSECONDS":"903935","MEAN_MOTION":"14.18346031","ECCENTRICITY":"0.0193108","INCLINATION":"97.9719","RA_OF_ASC_NODE":"87.5007","ARG_OF_PERICENTER":"63.8451","MEAN_ANOMALY":"298.2447","EPHEMERIS_TYPE":"0","ELEMENT_SET_NO":"41","REV_AT_EPOCH":"518","BSTAR":"0.00069178","MEAN_MOTION_DOT":"1.678e-05","MEAN_MOTION_DDOT":"0","FILE":"1787303","TLE_LINE0":"0 CZ-2C DEB","TLE_LINE1":"1 40288U 14066C   14336.88153824  .00001678  00000-0  69178-3 0   419","TLE_LINE2":"2 40288 097.9719 087.5007 0193108 063.8451 298.2447 14.18346031  5183","OBJECT_ID":"2014-066C","OBJECT_NUMBER":"40288"},{"ORDINAL":"3","COMMENT":"GENERATED VIA SPACETRACK.ORG API","ORIGINATOR":"JSPOC","NORAD_CAT_ID":"40264","OBJECT_NAME":"CZ-2C DEB","OBJECT_TYPE":"DEBRIS","CLASSIFICATION_TYPE":"U","INTLDES":"14059D","EPOCH":"2014-12-02 20:55:12","EPOCH_MICROSECONDS":"916128","MEAN_MOTION":"14.46243092","ECCENTRICITY":"0.0116161","INCLINATION":"97.8832","RA_OF_ASC_NODE":"60.5806","ARG_OF_PERICENTER":"17.364","MEAN_ANOMALY":"343.1481","EPHEMERIS_TYPE":"0","ELEMENT_SET_NO":"43","REV_AT_EPOCH":"949","BSTAR":"0.0015866","MEAN_MOTION_DOT":"6.137e-05","MEAN_MOTION_DDOT":"0","FILE":"1787273","TLE_LINE0":"0 CZ-2C DEB","TLE_LINE1":"1 40264U 14059D   14336.87167727  .00006137  00000-0  15866-2 0   432","TLE_LINE2":"2 40264 097.8832 060.5806 0116161 017.3640 343.1481 14.46243092  9498","OBJECT_ID":"2014-059D","OBJECT_NUMBER":"40264"},{"ORDINAL":"3","COMMENT":"GENERATED VIA SPACETRACK.ORG API","ORIGINATOR":"JSPOC","NORAD_CAT_ID":"40266","OBJECT_NAME":"CZ-2C DEB","OBJECT_TYPE":"DEBRIS","CLASSIFICATION_TYPE":"U","INTLDES":"14059F","EPOCH":"2014-12-02 20:27:28","EPOCH_MICROSECONDS":"273248","MEAN_MOTION":"14.18911632","ECCENTRICITY":"0.0195445","INCLINATION":"98.3508","RA_OF_ASC_NODE":"61.2882","ARG_OF_PERICENTER":"338.1267","MEAN_ANOMALY":"21.1656","EPHEMERIS_TYPE":"0","ELEMENT_SET_NO":"38","REV_AT_EPOCH":"930","BSTAR":"0.0012804","MEAN_MOTION_DOT":"3.183e-05","MEAN_MOTION_DDOT":"0","FILE":"1787273","TLE_LINE0":"0 CZ-2C DEB","TLE_LINE1":"1 40266U 14059F   14336.85241057  .00003183  00000-0  12804-2 0   382","TLE_LINE2":"2 40266 098.3508 061.2882 0195445 338.1267 021.1656 14.18911632  9307","OBJECT_ID":"2014-059F","OBJECT_NUMBER":"40266"},{"ORDINAL":"3","COMMENT":"GENERATED VIA SPACETRACK.ORG API","ORIGINATOR":"JSPOC","NORAD_CAT_ID":"40114","OBJECT_NAME":"CZ-4C DEB","OBJECT_TYPE":"DEBRIS","CLASSIFICATION_TYPE":"U","INTLDES":"14047F","EPOCH":"2014-12-02 19:21:11","EPOCH_MICROSECONDS":"768544","MEAN_MOTION":"13.43549285","ECCENTRICITY":"0.0018388","INCLINATION":"63.4284","RA_OF_ASC_NODE":"55.9322","ARG_OF_PERICENTER":"22.7024","MEAN_ANOMALY":"337.4814","EPHEMERIS_TYPE":"0","ELEMENT_SET_NO":"78","REV_AT_EPOCH":"1553","BSTAR":"0","MEAN_MOTION_DOT":"-9e-07","MEAN_MOTION_DDOT":"0","FILE":"1787320","TLE_LINE0":"0 CZ-4C DEB","TLE_LINE1":"1 40114U 14047F   14336.80638621 -.00000090  00000-0  00000+0 0   784","TLE_LINE2":"2 40114 063.4284 055.9322 0018388 022.7024 337.4814 13.43549285 15538","OBJECT_ID":"2014-047F","OBJECT_NUMBER":"40114"},{"ORDINAL":"5","COMMENT":"GENERATED VIA SPACETRACK.ORG API","ORIGINATOR":"JSPOC","NORAD_CAT_ID":"39619","OBJECT_NAME":"ARIANE 5 DEB (SYLDA)","OBJECT_TYPE":"DEBRIS","CLASSIFICATION_TYPE":"U","INTLDES":"14011D","EPOCH":"2014-12-02 19:04:50","EPOCH_MICROSECONDS":"163455","MEAN_MOTION":"2.4847725","ECCENTRICITY":"0.7137607","INCLINATION":"2.6385","RA_OF_ASC_NODE":"233.7503","ARG_OF_PERICENTER":"31.132","MEAN_ANOMALY":"356.1837","EPHEMERIS_TYPE":"0","ELEMENT_SET_NO":"252","REV_AT_EPOCH":"593","BSTAR":"0.019576","MEAN_MOTION_DOT":"0.0018601","MEAN_MOTION_DDOT":"0","FILE":"1787565","TLE_LINE0":"0 ARIANE 5 DEB (SYLDA)","TLE_LINE1":"1 39619U 14011D   14336.79502504  .00186010  00000-0  19576-1 0  2521","TLE_LINE2":"2 39619 002.6385 233.7503 7137607 031.1320 356.1837 02.48477250  5937","OBJECT_ID":"2014-011D","OBJECT_NUMBER":"39619"},{"ORDINAL":"2","COMMENT":"GENERATED VIA SPACETRACK.ORG API","ORIGINATOR":"JSPOC","NORAD_CAT_ID":"40309","OBJECT_NAME":"CZ-2C DEB","OBJECT_TYPE":"DEBRIS","CLASSIFICATION_TYPE":"U","INTLDES":"14071E","EPOCH":"2014-12-02 18:57:41","EPOCH_MICROSECONDS":"814719","MEAN_MOTION":"14.99475416","ECCENTRICITY":"0.0128719","INCLINATION":"97.1274","RA_OF_ASC_NODE":"280.33","ARG_OF_PERICENTER":"142.3911","MEAN_ANOMALY":"218.6755","EPHEMERIS_TYPE":"0","ELEMENT_SET_NO":"23","REV_AT_EPOCH":"269","BSTAR":"0.0028649","MEAN_MOTION_DOT":"0.00041975","MEAN_MOTION_DDOT":"0","FILE":"1787317","TLE_LINE0":"0 CZ-2C DEB","TLE_LINE1":"1 40309U 14071E   14336.79006730  .00041975  00000-0  28649-2 0   233","TLE_LINE2":"2 40309 097.1274 280.3300 0128719 142.3911 218.6755 14.99475416  2694","OBJECT_ID":"2014-071E","OBJECT_NUMBER":"40309"}]